CCSDS_OMM_VERS = 2.0
CREATION_DATE  = 
ORIGINATOR     = 

OBJECT_NAME    = STARLINK-36582
OBJECT_ID      = 2026-018L
CENTER_NAME    = EARTH
REF_FRAME      = TEME
TIME_SYSTEM    = UTC
MEAN_ELEMENT_THEORY = SGP/SGP4

EPOCH          = 2026-02-21T22:00:01.999584
MEAN_MOTION    = 15.75177961
ECCENTRICITY   = .00017153
INCLINATION    = 97.2851
RA_OF_ASC_NODE = 117.9623
ARG_OF_PERICENTER = 85.6494
MEAN_ANOMALY   = 351.3729

EPHEMERIS_TYPE = 0
CLASSIFICATION_TYPE = U
NORAD_CAT_ID   = 67599
ELEMENT_SET_NO = 999
REV_AT_EPOCH   = 491
BSTAR          = -.13618399E-3
MEAN_MOTION_DOT = -.20384E-3
MEAN_MOTION_DDOT = 0

CCSDS_OMM_VERS = 2.0
CREATION_DATE  = 
ORIGINATOR     = 

OBJECT_NAME    = STARLINK-36640
OBJECT_ID      = 2026-018M
CENTER_NAME    = EARTH
REF_FRAME      = TEME
TIME_SYSTEM    = UTC
MEAN_ELEMENT_THEORY = SGP/SGP4

EPOCH          = 2026-02-21T17:34:00.217344
MEAN_MOTION    = 15.75163192
ECCENTRICITY   = .0001353
INCLINATION    = 97.2844
RA_OF_ASC_NODE = 117.7196
ARG_OF_PERICENTER = 63.3999
MEAN_ANOMALY   = 296.7405

EPHEMERIS_TYPE = 0
CLASSIFICATION_TYPE = U
NORAD_CAT_ID   = 67600
ELEMENT_SET_NO = 999
REV_AT_EPOCH   = 479
BSTAR          = .12751846E-2
MEAN_MOTION_DOT = .194235E-2
MEAN_MOTION_DDOT = 0

CCSDS_OMM_VERS = 2.0
CREATION_DATE  = 
ORIGINATOR     = 

OBJECT_NAME    = STARLINK-36635
OBJECT_ID      = 2026-018N
CENTER_NAME    = EARTH
REF_FRAME      = TEME
TIME_SYSTEM    = UTC
MEAN_ELEMENT_THEORY = SGP/SGP4

EPOCH          = 2026-02-21T22:00:01.999584
MEAN_MOTION    = 15.75222832
ECCENTRICITY   = .00016677
INCLINATION    = 97.2842
RA_OF_ASC_NODE = 117.9925
ARG_OF_PERICENTER = 91.6771
MEAN_ANOMALY   = 55.3239

EPHEMERIS_TYPE = 0
CLASSIFICATION_TYPE = U
NORAD_CAT_ID   = 67601
ELEMENT_SET_NO = 999
REV_AT_EPOCH   = 482
BSTAR          = -.63785143E-3
MEAN_MOTION_DOT = -.94365E-3
MEAN_MOTION_DDOT = 0

CCSDS_OMM_VERS = 2.0
CREATION_DATE  = 
ORIGINATOR     = 

OBJECT_NAME    = STARLINK-36631
OBJECT_ID      = 2026-018P
CENTER_NAME    = EARTH
REF_FRAME      = TEME
TIME_SYSTEM    = UTC
MEAN_ELEMENT_THEORY = SGP/SGP4

EPOCH          = 2026-02-21T22:44:53.996352
MEAN_MOTION    = 15.80436830
ECCENTRICITY   = .0002363
INCLINATION    = 97.2832
RA_OF_ASC_NODE = 118.0375
ARG_OF_PERICENTER = 13.4341
MEAN_ANOMALY   = 346.6990

EPHEMERIS_TYPE = 0
CLASSIFICATION_TYPE = U
NORAD_CAT_ID   = 67602
ELEMENT_SET_NO = 999
REV_AT_EPOCH   = 483
BSTAR          = -.85697761E-3
MEAN_MOTION_DOT = -.158613E-2
MEAN_MOTION_DDOT = 0

CCSDS_OMM_VERS = 2.0
CREATION_DATE  = 
ORIGINATOR     = 

OBJECT_NAME    = STARLINK-36626
OBJECT_ID      = 2026-018Q
CENTER_NAME    = EARTH
REF_FRAME      = TEME
TIME_SYSTEM    = UTC
MEAN_ELEMENT_THEORY = SGP/SGP4

EPOCH          = 2026-02-21T16:57:24.624864
MEAN_MOTION    = 15.75163046
ECCENTRICITY   = .00016854
INCLINATION    = 97.2835
RA_OF_ASC_NODE = 117.7549
ARG_OF_PERICENTER = 135.7705
MEAN_ANOMALY   = 224.3695

EPHEMERIS_TYPE = 0
CLASSIFICATION_TYPE = U
NORAD_CAT_ID   = 67603
ELEMENT_SET_NO = 999
REV_AT_EPOCH   = 479
BSTAR          = .18565847E-2
MEAN_MOTION_DOT = .285936E-2
MEAN_MOTION_DDOT = 0

CCSDS_OMM_VERS = 2.0
CREATION_DATE  = 
ORIGINATOR     = 

OBJECT_NAME    = STARLINK-36605
OBJECT_ID      = 2026-018R
CENTER_NAME    = EARTH
REF_FRAME      = TEME
TIME_SYSTEM    = UTC
MEAN_ELEMENT_THEORY = SGP/SGP4

EPOCH          = 2026-02-21T17:22:48.770976
MEAN_MOTION    = 15.75187123
ECCENTRICITY   = .00013369
INCLINATION    = 97.2836
RA_OF_ASC_NODE = 117.7312
ARG_OF_PERICENTER = 177.7238
MEAN_ANOMALY   = 182.4033

EPHEMERIS_TYPE = 0
CLASSIFICATION_TYPE = U
NORAD_CAT_ID   = 67604
ELEMENT_SET_NO = 999
REV_AT_EPOCH   = 479
BSTAR          = .21469426E-2
MEAN_MOTION_DOT = .332867E-2
MEAN_MOTION_DDOT = 0

CCSDS_OMM_VERS = 2.0
CREATION_DATE  = 
ORIGINATOR     = 

OBJECT_NAME    = STARLINK-36281
OBJECT_ID      = 2026-018S
CENTER_NAME    = EARTH
REF_FRAME      = TEME
TIME_SYSTEM    = UTC
MEAN_ELEMENT_THEORY = SGP/SGP4

EPOCH          = 2026-02-21T19:40:41.482848
MEAN_MOTION    = 15.80843278
ECCENTRICITY   = .00015309
INCLINATION    = 97.2837
RA_OF_ASC_NODE = 117.9058
ARG_OF_PERICENTER = 92.6739
MEAN_ANOMALY   = 267.4705

EPHEMERIS_TYPE = 0
CLASSIFICATION_TYPE = U
NORAD_CAT_ID   = 67605
ELEMENT_SET_NO = 999
REV_AT_EPOCH   = 481
BSTAR          = .15803447E-2
MEAN_MOTION_DOT = .314119E-2
MEAN_MOTION_DDOT = 0

CCSDS_OMM_VERS = 2.0
CREATION_DATE  = 
ORIGINATOR     = 

OBJECT_NAME    = STARLINK-35843
OBJECT_ID      = 2026-018T
CENTER_NAME    = EARTH
REF_FRAME      = TEME
TIME_SYSTEM    = UTC
MEAN_ELEMENT_THEORY = SGP/SGP4

EPOCH          = 2026-02-21T17:14:41.278848
MEAN_MOTION    = 15.75236429
ECCENTRICITY   = .00014145
INCLINATION    = 97.2837
RA_OF_ASC_NODE = 117.7380
ARG_OF_PERICENTER = 139.8355
MEAN_ANOMALY   = 220.3015

EPHEMERIS_TYPE = 0
CLASSIFICATION_TYPE = U
NORAD_CAT_ID   = 67606
ELEMENT_SET_NO = 999
REV_AT_EPOCH   = 479
BSTAR          = .11918648E-2
MEAN_MOTION_DOT = .181845E-2
MEAN_MOTION_DDOT = 0

CCSDS_OMM_VERS = 2.0
CREATION_DATE  = 
ORIGINATOR     = 

OBJECT_NAME    = STARLINK-36351
OBJECT_ID      = 2026-018U
CENTER_NAME    = EARTH
REF_FRAME      = TEME
TIME_SYSTEM    = UTC
MEAN_ELEMENT_THEORY = SGP/SGP4

EPOCH          = 2026-02-21T18:26:21.106176
MEAN_MOTION    = 15.75181811
ECCENTRICITY   = .00012824
INCLINATION    = 97.2837
RA_OF_ASC_NODE = 117.8246
ARG_OF_PERICENTER = 108.2253
MEAN_ANOMALY   = 251.9152

EPHEMERIS_TYPE = 0
CLASSIFICATION_TYPE = U
NORAD_CAT_ID   = 67607
ELEMENT_SET_NO = 999
REV_AT_EPOCH   = 480
BSTAR          = .16096181E-2
MEAN_MOTION_DOT = .246941E-2
MEAN_MOTION_DDOT = 0

CCSDS_OMM_VERS = 2.0
CREATION_DATE  = 
ORIGINATOR     = 

OBJECT_NAME    = STARLINK-36411
OBJECT_ID      = 2026-018V
CENTER_NAME    = EARTH
REF_FRAME      = TEME
TIME_SYSTEM    = UTC
MEAN_ELEMENT_THEORY = SGP/SGP4

EPOCH          = 2026-02-21T19:33:15.578496
MEAN_MOTION    = 15.80847891
ECCENTRICITY   = .00015171
INCLINATION    = 97.2841
RA_OF_ASC_NODE = 117.9131
ARG_OF_PERICENTER = 90.2558
MEAN_ANOMALY   = 269.8884

EPHEMERIS_TYPE = 0
CLASSIFICATION_TYPE = U
NORAD_CAT_ID   = 67608
ELEMENT_SET_NO = 999
REV_AT_EPOCH   = 481
BSTAR          = .14788954E-2
MEAN_MOTION_DOT = .293298E-2
MEAN_MOTION_DDOT = 0

CCSDS_OMM_VERS = 2.0
CREATION_DATE  = 
ORIGINATOR     = 

OBJECT_NAME    = STARLINK-36312
OBJECT_ID      = 2026-018W
CENTER_NAME    = EARTH
REF_FRAME      = TEME
TIME_SYSTEM    = UTC
MEAN_ELEMENT_THEORY = SGP/SGP4

EPOCH          = 2026-02-21T16:51:48.666240
MEAN_MOTION    = 15.75163774
ECCENTRICITY   = .00017512
INCLINATION    = 97.2833
RA_OF_ASC_NODE = 117.7609
ARG_OF_PERICENTER = 185.6126
MEAN_ANOMALY   = 174.5120

EPHEMERIS_TYPE = 0
CLASSIFICATION_TYPE = U
NORAD_CAT_ID   = 67609
ELEMENT_SET_NO = 999
REV_AT_EPOCH   = 479
BSTAR          = .21237508E-2
MEAN_MOTION_DOT = .328776E-2
MEAN_MOTION_DDOT = 0

CCSDS_OMM_VERS = 2.0
CREATION_DATE  = 
ORIGINATOR     = 

OBJECT_NAME    = STARLINK-36387
OBJECT_ID      = 2026-018X
CENTER_NAME    = EARTH
REF_FRAME      = TEME
TIME_SYSTEM    = UTC
MEAN_ELEMENT_THEORY = SGP/SGP4

EPOCH          = 2026-02-21T17:58:19.320672
MEAN_MOTION    = 15.80812472
ECCENTRICITY   = .0001771
INCLINATION    = 97.2847
RA_OF_ASC_NODE = 117.8491
ARG_OF_PERICENTER = 59.6410
MEAN_ANOMALY   = 300.5033

EPHEMERIS_TYPE = 0
CLASSIFICATION_TYPE = U
NORAD_CAT_ID   = 67610
ELEMENT_SET_NO = 999
REV_AT_EPOCH   = 480
BSTAR          = .15958102E-2
MEAN_MOTION_DOT = .31685E-2
MEAN_MOTION_DDOT = 0

