STARLINK-36582          
1 67599U 26018L   26052.91668981 -.00020384  00000+0 -13618-3 0  9996
2 67599  97.2851 117.9623 0001715  85.6494 351.3729 15.75177961  4912
STARLINK-36640          
1 67600U 26018M   26052.73194696  .00194235  00000+0  12752-2 0  9998
2 67600  97.2844 117.7196 0001353  63.3999 296.7405 15.75163192  4791
STARLINK-36635          
1 67601U 26018N   26052.91668981 -.00094365  00000+0 -63785-3 0  9990
2 67601  97.2842 117.9925 0001667  91.6771  55.3239 15.75222832  4827
STARLINK-36631          
1 67602U 26018P   26052.94784718 -.00158613  00000+0 -85698-3 0  9995
2 67602  97.2832 118.0375 0002363  13.4341 346.6990 15.80436830  4839
STARLINK-36626          
1 67603U 26018Q   26052.70653501  .00285936  00000+0  18566-2 0  9991
2 67603  97.2835 117.7549 0001685 135.7705 224.3695 15.75163046  4799
STARLINK-36605          
1 67604U 26018R   26052.72417559  .00332867  00000+0  21469-2 0  9997
2 67604  97.2836 117.7312 0001336 177.7238 182.4033 15.75187123  4791
STARLINK-36281          
1 67605U 26018S   26052.81992457  .00314119  00000+0  15803-2 0  9998
2 67605  97.2837 117.9058 0001530  92.6739 267.4705 15.80843278  4818
STARLINK-35843          
1 67606U 26018T   26052.71853332  .00181845  00000+0  11919-2 0  9998
2 67606  97.2837 117.7380 0001414 139.8355 220.3015 15.75236429  4791
STARLINK-36351          
1 67607U 26018U   26052.76829984  .00246941  00000+0  16096-2 0  9990
2 67607  97.2837 117.8246 0001282 108.2253 251.9152 15.75181811  4802
STARLINK-36411          
1 67608U 26018V   26052.81476364  .00293298  00000+0  14789-2 0  9991
2 67608  97.2841 117.9131 0001517  90.2558 269.8884 15.80847891  4815
STARLINK-36312          
1 67609U 26018W   26052.70264660  .00328776  00000+0  21238-2 0  9991
2 67609  97.2833 117.7609 0001751 185.6126 174.5120 15.75163774  4792
STARLINK-36387          
1 67610U 26018X   26052.74883473  .00316850  00000+0  15958-2 0  9998
2 67610  97.2847 117.8491 0001771  59.6410 300.5033 15.80812472  4805
